*******************************************************************************
Ephemeris / WWW_USER Mon Jul 15 18:59:08 2024 Pasadena, USA      / Horizons    
*******************************************************************************
Target body name: (2018 RP1)                      {source: JPL#4}
Center body name: Earth (399)                     {source: DE441}
Center-site name: Gemini South Obs., Cerro Pachon
*******************************************************************************
Start time      : A.D. 2019-Jan-25 23:54:00.0000 UT      
Stop  time      : A.D. 2019-Jan-26 09:56:00.0000 UT      
Step-size       : 1 minutes
*******************************************************************************
Target pole/equ : undefined
Target radii    : undefined                                                    
Center geodetic : 289.2634, -30.2406227, 2.71233  {E-lon(deg),Lat(deg),Alt(km)}
Center cylindric: 289.2634,5517.21435,-3194.81213 {E-lon(deg),Dxy(km),Dz(km)}
Center pole/equ : ITRF93                          {East-longitude positive}
Center radii    : 6378.137, 6378.137, 6356.752 km {Equator_a, b, pole_c}       
Target primary  : Sun
Vis. interferer : MOON (R_eq= 1737.400) km        {source: DE441}
Rel. light bend : Sun                             {source: DE441}
Rel. lght bnd GM: 1.3271E+11 km^3/s^2                                          
Small-body perts: Yes                             {source: SB441-N16}
Atmos refraction: NO (AIRLESS)
RA format       : HMS
Time format     : CAL 
Calendar mode   : Mixed Julian/Gregorian
RTS-only print  : NO       
EOP file        : eop.240715.p241008                                           
EOP coverage    : DATA-BASED 1962-JAN-20 TO 2024-JUL-15. PREDICTS-> 2024-OCT-07
Units conversion: 1 au= 149597870.700 km, c= 299792.458 km/s, 1 day= 86400.0 s 
Table cut-offs 1: Elevation (-90.0deg=NO ),Airmass (>38.000=NO), Daylight (YES)
Table cut-offs 2: Solar elongation (  0.0,180.0=NO ),Local Hour Angle( 0.0=NO )
Table cut-offs 3: RA/DEC angular rate (     0.0=NO )                           
*******************************************************************************
Initial IAU76/J2000 heliocentric ecliptic osculating elements (au, days, deg.):
  EPOCH=  2458376.5 ! 2018-Sep-15.00 (TDB)         Residual RMS= .12525        
   EC= .3382936082205208   QR= .9576766169446216   TP= 2458412.3293739939      
   OM= 161.903422202901    W=  234.5704247756858   IN= 9.466091569921099       
  Equivalent ICRF heliocentric cartesian coordinates (au, au/d):
   X= 1.017940821946709E+00  Y=-7.278189102440286E-02  Z=-7.249995171787897E-02
  VX=-1.754817228708964E-03 VY= 1.862872143473751E-02 VZ= 4.887370356508847E-03
Asteroid physical parameters (km, seconds, rotational period in hours):        
   GM= n.a.                RAD= n.a.               ROTPER= n.a.                
   H= 24.3                 G= .150                 B-V= n.a.                   
                           ALBEDO= n.a.            STYP= n.a.                  
*******************************************************************************
 Date__(UT)__HR:MN     R.A._________(ICRF)_________DEC
******************************************************
$$SOE
 2019-Jan-26 08:06  m  09 23 57.242990 -04 22 32.93574
 2019-Jan-26 08:07  m  09 23 57.169794 -04 22 31.51239
 2019-Jan-26 08:08  m  09 23 57.096614 -04 22 30.08901
 2019-Jan-26 08:09  m  09 23 57.023451 -04 22 28.66559
 2019-Jan-26 08:10  m  09 23 56.950303 -04 22 27.24214
 2019-Jan-26 08:11  m  09 23 56.877172 -04 22 25.81866
 2019-Jan-26 08:12  m  09 23 56.804056 -04 22 24.39515
 2019-Jan-26 08:13  m  09 23 56.730958 -04 22 22.97160
 2019-Jan-26 08:14  m  09 23 56.657875 -04 22 21.54802
 2019-Jan-26 08:15  m  09 23 56.584810 -04 22 20.12441
 2019-Jan-26 08:16  m  09 23 56.511761 -04 22 18.70076
 2019-Jan-26 08:17  m  09 23 56.438728 -04 22 17.27709
 2019-Jan-26 08:18  m  09 23 56.365713 -04 22 15.85338
 2019-Jan-26 08:19  m  09 23 56.292715 -04 22 14.42964
 2019-Jan-26 08:20  m  09 23 56.219733 -04 22 13.00586
 2019-Jan-26 08:21  m  09 23 56.146769 -04 22 11.58206
 2019-Jan-26 08:22  m  09 23 56.073822 -04 22 10.15822
 2019-Jan-26 08:23  m  09 23 56.000893 -04 22 08.73436
 2019-Jan-26 08:24  m  09 23 55.927981 -04 22 07.31046
 2019-Jan-26 08:25  m  09 23 55.855086 -04 22 05.88653
 2019-Jan-26 08:26  m  09 23 55.782209 -04 22 04.46257
 2019-Jan-26 08:27  m  09 23 55.709350 -04 22 03.03857
 2019-Jan-26 08:28  m  09 23 55.636508 -04 22 01.61455
 2019-Jan-26 08:29  m  09 23 55.563685 -04 22 00.19049
 2019-Jan-26 08:30  m  09 23 55.490879 -04 21 58.76641
 2019-Jan-26 08:31  m  09 23 55.418092 -04 21 57.34229
 2019-Jan-26 08:32  m  09 23 55.345323 -04 21 55.91814
 2019-Jan-26 08:33  m  09 23 55.272572 -04 21 54.49397
 2019-Jan-26 08:34  m  09 23 55.199839 -04 21 53.06976
 2019-Jan-26 08:35 Am  09 23 55.127125 -04 21 51.64552
 2019-Jan-26 08:36 Am  09 23 55.054429 -04 21 50.22125
 2019-Jan-26 08:37 Am  09 23 54.981752 -04 21 48.79695
 2019-Jan-26 08:38 Am  09 23 54.909094 -04 21 47.37262
 2019-Jan-26 08:39 Am  09 23 54.836454 -04 21 45.94826
 2019-Jan-26 08:40 Am  09 23 54.763834 -04 21 44.52387
 2019-Jan-26 08:41 Am  09 23 54.691232 -04 21 43.09945
 2019-Jan-26 08:42 Am  09 23 54.618650 -04 21 41.67500
 2019-Jan-26 08:43 Am  09 23 54.546086 -04 21 40.25052
 2019-Jan-26 08:44 Am  09 23 54.473542 -04 21 38.82602
 2019-Jan-26 08:45 Am  09 23 54.401017 -04 21 37.40148
 2019-Jan-26 08:46 Am  09 23 54.328512 -04 21 35.97691
 2019-Jan-26 08:47 Am  09 23 54.256026 -04 21 34.55231
 2019-Jan-26 08:48 Am  09 23 54.183560 -04 21 33.12769
 2019-Jan-26 08:49 Am  09 23 54.111113 -04 21 31.70304
 2019-Jan-26 08:50 Am  09 23 54.038686 -04 21 30.27835
 2019-Jan-26 08:51 Am  09 23 53.966279 -04 21 28.85364
 2019-Jan-26 08:52 Am  09 23 53.893892 -04 21 27.42890
 2019-Jan-26 08:53 Am  09 23 53.821525 -04 21 26.00413
 2019-Jan-26 08:54 Am  09 23 53.749178 -04 21 24.57933
 2019-Jan-26 08:55 Am  09 23 53.676851 -04 21 23.15451
 2019-Jan-26 08:56 Am  09 23 53.604545 -04 21 21.72965
 2019-Jan-26 08:57 Am  09 23 53.532258 -04 21 20.30477
 2019-Jan-26 08:58 Am  09 23 53.459992 -04 21 18.87986
 2019-Jan-26 08:59 Am  09 23 53.387747 -04 21 17.45492
 2019-Jan-26 09:00 Am  09 23 53.315522 -04 21 16.02996
 2019-Jan-26 09:01 Am  09 23 53.243318 -04 21 14.60496
 2019-Jan-26 09:02 Am  09 23 53.171135 -04 21 13.17994
 2019-Jan-26 09:03 Am  09 23 53.098973 -04 21 11.75489
 2019-Jan-26 09:04 Am  09 23 53.026831 -04 21 10.32982
 2019-Jan-26 09:05 Am  09 23 52.954710 -04 21 08.90471
 2019-Jan-26 09:06 Am  09 23 52.882611 -04 21 07.47958
 2019-Jan-26 09:07 Am  09 23 52.810532 -04 21 06.05442
 2019-Jan-26 09:08 Nm  09 23 52.738475 -04 21 04.62924
 2019-Jan-26 09:09 Nm  09 23 52.666439 -04 21 03.20403
 2019-Jan-26 09:10 Nm  09 23 52.594425 -04 21 01.77879
 2019-Jan-26 09:11 Nm  09 23 52.522431 -04 21 00.35353
 2019-Jan-26 09:12 Nm  09 23 52.450460 -04 20 58.92824
 2019-Jan-26 09:13 Nm  09 23 52.378510 -04 20 57.50292
 2019-Jan-26 09:14 Nm  09 23 52.306582 -04 20 56.07757
 2019-Jan-26 09:15 Nm  09 23 52.234675 -04 20 54.65220
 2019-Jan-26 09:16 Nm  09 23 52.162790 -04 20 53.22681
 2019-Jan-26 09:17 Nm  09 23 52.090927 -04 20 51.80139
 2019-Jan-26 09:18 Nm  09 23 52.019086 -04 20 50.37594
 2019-Jan-26 09:19 Nm  09 23 51.947267 -04 20 48.95047
 2019-Jan-26 09:20 Nm  09 23 51.875471 -04 20 47.52497
 2019-Jan-26 09:21 Nm  09 23 51.803696 -04 20 46.09945
 2019-Jan-26 09:22 Nm  09 23 51.731944 -04 20 44.67390
 2019-Jan-26 09:23 Nm  09 23 51.660214 -04 20 43.24832
 2019-Jan-26 09:24 Nm  09 23 51.588506 -04 20 41.82272
 2019-Jan-26 09:25 Nm  09 23 51.516821 -04 20 40.39710
 2019-Jan-26 09:26 Nm  09 23 51.445158 -04 20 38.97145
 2019-Jan-26 09:27 Nm  09 23 51.373518 -04 20 37.54578
 2019-Jan-26 09:28 Nm  09 23 51.301901 -04 20 36.12008
 2019-Jan-26 09:29 Nm  09 23 51.230306 -04 20 34.69435
 2019-Jan-26 09:30 Nm  09 23 51.158735 -04 20 33.26861
 2019-Jan-26 09:31 Nm  09 23 51.087186 -04 20 31.84284
 2019-Jan-26 09:32 Nm  09 23 51.015660 -04 20 30.41704
 2019-Jan-26 09:33 Nm  09 23 50.944157 -04 20 28.99122
 2019-Jan-26 09:34 Nm  09 23 50.872677 -04 20 27.56538
 2019-Jan-26 09:35 Nm  09 23 50.801220 -04 20 26.13951
 2019-Jan-26 09:36 Nm  09 23 50.729787 -04 20 24.71362
 2019-Jan-26 09:37 Nm  09 23 50.658376 -04 20 23.28771
 2019-Jan-26 09:38 Nm  09 23 50.586990 -04 20 21.86177
 2019-Jan-26 09:39 Nm  09 23 50.515626 -04 20 20.43581
 2019-Jan-26 09:40 Cm  09 23 50.444286 -04 20 19.00982
 2019-Jan-26 09:41 Cm  09 23 50.372969 -04 20 17.58382
 2019-Jan-26 09:42 Cm  09 23 50.301677 -04 20 16.15779
 2019-Jan-26 09:43 Cm  09 23 50.230407 -04 20 14.73173
 2019-Jan-26 09:44 Cm  09 23 50.159162 -04 20 13.30566
 2019-Jan-26 09:45 Cm  09 23 50.087940 -04 20 11.87956
 2019-Jan-26 09:46 Cm  09 23 50.016742 -04 20 10.45344
 2019-Jan-26 09:47 Cm  09 23 49.945568 -04 20 09.02730
 2019-Jan-26 09:48 Cm  09 23 49.874418 -04 20 07.60113
 2019-Jan-26 09:49 Cm  09 23 49.803292 -04 20 06.17495
 2019-Jan-26 09:50 Cm  09 23 49.732190 -04 20 04.74874
 2019-Jan-26 09:51 Cm  09 23 49.661112 -04 20 03.32251
 2019-Jan-26 09:52 Cm  09 23 49.590059 -04 20 01.89626
 2019-Jan-26 09:53 Cm  09 23 49.519029 -04 20 00.46998
 2019-Jan-26 09:54 Cm  09 23 49.448024 -04 19 59.04369
 2019-Jan-26 09:55 Cm  09 23 49.377044 -04 19 57.61737
 2019-Jan-26 09:56 Cm  09 23 49.306087 -04 19 56.19104
